{
  "type": "FeatureCollection",
  "features": [
    {
      "type": "Feature",
      "properties": {
        "norad_id": 33376,
        "name": "GALAXY 19 (G-19)",
        "group": "intelsat",
        "lat": 0.03537915689231446,
        "lon": 81.8902153257082,
        "alt_km": 35800.90819008632,
        "timestamp": "2025-12-02T07:10:08.777182+00:00",
        "meta_object_name": "GALAXY 19 (G-19)",
        "meta_object_id": "2008-045A",
        "meta_epoch": "2025-12-01T15:03:55.427040",
        "meta_mean_motion": 1.00270124,
        "meta_eccentricity": 0.0003388,
        "meta_inclination": 0.0183,
        "meta_ra_of_asc_node": 342.846,
        "meta_arg_of_pericenter": 278.184,
        "meta_mean_anomaly": 298.6766,
        "meta_ephemeris_type": 0,
        "meta_classification_type": "U",
        "meta_norad_cat_id": 33376,
        "meta_element_set_no": 999,
        "meta_rev_at_epoch": 6292,
        "meta_bstar": 0,
        "meta_mean_motion_dot": 0,
        "meta_mean_motion_ddot": 0,
        "tle_line1": "1 33376U 08045A   25335.62772485  .00000000  00000+0  00000+0 0  9996",
        "tle_line2": "2 33376   0.0183 342.8460 0003388 278.1840 298.6766  1.00270124 62925"
      },
      "geometry": {
        "type": "Point",
        "coordinates": [
          81.8902153257082,
          0.03537915689231446
        ]
      }
    },
    {
      "type": "Feature",
      "properties": {
        "norad_id": 35493,
        "name": "FM-5",
        "group": "intelsat",
        "lat": 0.013947794806627873,
        "lon": 92.7652781990922,
        "alt_km": 35784.339787041914,
        "timestamp": "2025-12-02T07:10:08.777194+00:00",
        "meta_object_name": "FM-5",
        "meta_object_id": "2009-034A",
        "meta_epoch": "2025-12-01T18:32:17.132064",
        "meta_mean_motion": 1.00270401,
        "meta_eccentricity": 0.0001457,
        "meta_inclination": 0.0262,
        "meta_ra_of_asc_node": 280.4187,
        "meta_arg_of_pericenter": 241.5118,
        "meta_mean_anomaly": 100.8978,
        "meta_ephemeris_type": 0,
        "meta_classification_type": "U",
        "meta_norad_cat_id": 35493,
        "meta_element_set_no": 999,
        "meta_rev_at_epoch": 4466,
        "meta_bstar": 0,
        "meta_mean_motion_dot": -1.79e-06,
        "meta_mean_motion_ddot": 0,
        "tle_line1": "1 35493U 09034A   25335.77242051 -.00000179  00000+0  00000+0 0  9992",
        "tle_line2": "2 35493   0.0262 280.4187 0001457 241.5118 100.8978  1.00270401 44663"
      },
      "geometry": {
        "type": "Point",
        "coordinates": [
          92.7652781990922,
          0.013947794806627873
        ]
      }
    },
    {
      "type": "Feature",
      "properties": {
        "norad_id": 36097,
        "name": "INTELSAT 14 (IS-14)",
        "group": "intelsat",
        "lat": 0.014364787161858352,
        "lon": 133.8867927249931,
        "alt_km": 35791.71341223123,
        "timestamp": "2025-12-02T07:10:08.777206+00:00",
        "meta_object_name": "INTELSAT 14 (IS-14)",
        "meta_object_id": "2009-064A",
        "meta_epoch": "2025-12-01T18:44:08.496096",
        "meta_mean_motion": 1.00270493,
        "meta_eccentricity": 0.000266,
        "meta_inclination": 0.0208,
        "meta_ra_of_asc_node": 36.1549,
        "meta_arg_of_pericenter": 215.3466,
        "meta_mean_anomaly": 55.4318,
        "meta_ephemeris_type": 0,
        "meta_classification_type": "U",
        "meta_norad_cat_id": 36097,
        "meta_element_set_no": 999,
        "meta_rev_at_epoch": 5862,
        "meta_bstar": 0,
        "meta_mean_motion_dot": -2.52e-06,
        "meta_mean_motion_ddot": 0,
        "tle_line1": "1 36097U 09064A   25335.78065389 -.00000252  00000+0  00000+0 0  9996",
        "tle_line2": "2 36097   0.0208  36.1549 0002660 215.3466  55.4318  1.00270493 58629"
      },
      "geometry": {
        "type": "Point",
        "coordinates": [
          133.8867927249931,
          0.014364787161858352
        ]
      }
    },
    {
      "type": "Feature",
      "properties": {
        "norad_id": 36106,
        "name": "INTELSAT 15 (IS-15)",
        "group": "intelsat",
        "lat": -0.022560919588266684,
        "lon": -95.9143186319111,
        "alt_km": 35776.67722584042,
        "timestamp": "2025-12-02T07:10:08.777222+00:00",
        "meta_object_name": "INTELSAT 15 (IS-15)",
        "meta_object_id": "2009-067A",
        "meta_epoch": "2025-12-01T19:21:19.933344",
        "meta_mean_motion": 1.00270712,
        "meta_eccentricity": 0.0002364,
        "meta_inclination": 0.0114,
        "meta_ra_of_asc_node": 302.0662,
        "meta_arg_of_pericenter": 308.5106,
        "meta_mean_anomaly": 195.8445,
        "meta_ephemeris_type": 0,
        "meta_classification_type": "U",
        "meta_norad_cat_id": 36106,
        "meta_element_set_no": 999,
        "meta_rev_at_epoch": 3925,
        "meta_bstar": 0,
        "meta_mean_motion_dot": -1.64e-06,
        "meta_mean_motion_ddot": 0,
        "tle_line1": "1 36106U 09067A   25335.80648071 -.00000164  00000+0  00000+0 0  9990",
        "tle_line2": "2 36106   0.0114 302.0662 0002364 308.5106 195.8445  1.00270712 39256"
      },
      "geometry": {
        "type": "Point",
        "coordinates": [
          -95.9143186319111,
          -0.022560919588266684
        ]
      }
    },
    {
      "type": "Feature",
      "properties": {
        "norad_id": 36131,
        "name": "DIRECTV 12",
        "group": "intelsat",
        "lat": 0.018534233651965208,
        "lon": 76.20658817946529,
        "alt_km": 35786.472668835406,
        "timestamp": "2025-12-02T07:10:08.777234+00:00",
        "meta_object_name": "DIRECTV 12",
        "meta_object_id": "2009-075A",
        "meta_epoch": "2025-12-01T15:02:03.106176",
        "meta_mean_motion": 1.00272171,
        "meta_eccentricity": 1.49e-05,
        "meta_inclination": 0.0437,
        "meta_ra_of_asc_node": 128.6784,
        "meta_arg_of_pericenter": 88.6985,
        "meta_mean_anomaly": 336.1721,
        "meta_ephemeris_type": 0,
        "meta_classification_type": "U",
        "meta_norad_cat_id": 36131,
        "meta_element_set_no": 999,
        "meta_rev_at_epoch": 4457,
        "meta_bstar": 0,
        "meta_mean_motion_dot": -8.2e-07,
        "meta_mean_motion_ddot": 0,
        "tle_line1": "1 36131U 09075A   25335.62642484 -.00000082  00000+0  00000+0 0  9998",
        "tle_line2": "2 36131   0.0437 128.6784 0000149  88.6985 336.1721  1.00272171 44578"
      },
      "geometry": {
        "type": "Point",
        "coordinates": [
          76.20658817946529,
          0.018534233651965208
        ]
      }
    },
    {
      "type": "Feature",
      "properties": {
        "norad_id": 36397,
        "name": "INTELSAT 16 (IS-16)",
        "group": "intelsat",
        "lat": 0.013724376406834061,
        "lon": 102.7062061040475,
        "alt_km": 35794.639336993096,
        "timestamp": "2025-12-02T07:10:08.777245+00:00",
        "meta_object_name": "INTELSAT 16 (IS-16)",
        "meta_object_id": "2010-006A",
        "meta_epoch": "2025-12-01T08:18:54.519840",
        "meta_mean_motion": 1.00270849,
        "meta_eccentricity": 0.00022509,
        "meta_inclination": 0.0099,
        "meta_ra_of_asc_node": 306.6542,
        "meta_arg_of_pericenter": 305.5612,
        "meta_mean_anomaly": 226.7882,
        "meta_ephemeris_type": 0,
        "meta_classification_type": "U",
        "meta_norad_cat_id": 36397,
        "meta_element_set_no": 999,
        "meta_rev_at_epoch": 5767,
        "meta_bstar": 0,
        "meta_mean_motion_dot": -2.23e-06,
        "meta_mean_motion_ddot": 0,
        "tle_line1": "1 36397U 10006A   25335.34646435 -.00000223  00000+0  00000+0 0  9994",
        "tle_line2": "2 36397   0.0099 306.6542 0002250 305.5612 226.7882  1.00270849 57676"
      },
      "geometry": {
        "type": "Point",
        "coordinates": [
          102.7062061040475,
          0.013724376406834061
        ]
      }
    },
    {
      "type": "Feature",
      "properties": {
        "norad_id": 37185,
        "name": "XM-5",
        "group": "intelsat",
        "lat": 0.04970227785156222,
        "lon": 63.71091029309472,
        "alt_km": 35786.87167021623,
        "timestamp": "2025-12-02T07:10:08.777257+00:00",
        "meta_object_name": "XM-5",
        "meta_object_id": "2010-053A",
        "meta_epoch": "2025-12-01T20:32:28.051008",
        "meta_mean_motion": 1.00269327,
        "meta_eccentricity": 0.0001695,
        "meta_inclination": 0.065,
        "meta_ra_of_asc_node": 272.3391,
        "meta_arg_of_pericenter": 242.3162,
        "meta_mean_anomaly": 109.2514,
        "meta_ephemeris_type": 0,
        "meta_classification_type": "U",
        "meta_norad_cat_id": 37185,
        "meta_element_set_no": 999,
        "meta_rev_at_epoch": 5550,
        "meta_bstar": 0,
        "meta_mean_motion_dot": -2e-08,
        "meta_mean_motion_ddot": 0,
        "tle_line1": "1 37185U 10053A   25335.85588022 -.00000002  00000+0  00000+0 0  9990",
        "tle_line2": "2 37185   0.0650 272.3391 0001695 242.3162 109.2514  1.00269327 55502"
      },
      "geometry": {
        "type": "Point",
        "coordinates": [
          63.71091029309472,
          0.04970227785156222
        ]
      }
    }
  ]
}